[{"OBJECT_NAME":"PRAETORIAN SDA_618","OBJECT_ID":"2025-203S","EPOCH":"2026-03-09T13:20:40.860672","MEAN_MOTION":13.8476252,"ECCENTRICITY":0.0011029,"INCLINATION":81.2991,"RA_OF_ASC_NODE":102.8568,"ARG_OF_PERICENTER":103.2416,"MEAN_ANOMALY":256.9972,"EPHEMERIS_TYPE":0,"CLASSIFICATION_TYPE":"U","NORAD_CAT_ID":65581,"ELEMENT_SET_NO":999,"REV_AT_EPOCH":2492,"BSTAR":0.00021051,"MEAN_MOTION_DOT":2.49e-6,"MEAN_MOTION_DDOT":0},{"OBJECT_NAME":"FENGYUN 1C DEB","OBJECT_ID":"1999-025GQ","EPOCH":"2026-03-09T20:13:03.689184","MEAN_MOTION":13.8110192,"ECCENTRICITY":0.0169755,"INCLINATION":99.4722,"RA_OF_ASC_NODE":128.5008,"ARG_OF_PERICENTER":174.768,"MEAN_ANOMALY":252.6806,"EPHEMERIS_TYPE":0,"CLASSIFICATION_TYPE":"U","NORAD_CAT_ID":29894,"ELEMENT_SET_NO":999,"REV_AT_EPOCH":96279,"BSTAR":0.00061675954,"MEAN_MOTION_DOT":6.83e-6,"MEAN_MOTION_DDOT":0}]
